STARLINK-2260
1 17996C 21024V   21326.19660076 -.00656149  00000-0 -16519-1 0  3263
2 17996  53.0431  80.6899 0001658  39.3580 196.6832 15.39998424    11
